{
  "type": "FeatureCollection",
  "features": [
    {
      "type": "Feature",
      "properties": {
        "norad_id": 31367,
        "name": "FENGYUN 1C DEB",
        "group": "fengyun-1c-debris",
        "lat": -56.703947497166276,
        "lon": -100.10231175097574,
        "alt_km": 703.602745757179,
        "timestamp": "2025-12-17T21:39:45.968611+00:00",
        "meta_object_name": "FENGYUN 1C DEB",
        "meta_object_id": "1999-025BRX",
        "meta_epoch": "2025-12-17T11:06:39.597120",
        "meta_mean_motion": 14.47510218,
        "meta_eccentricity": 0.00991879,
        "meta_inclination": 98.7463,
        "meta_ra_of_asc_node": 245.887,
        "meta_arg_of_pericenter": 2.28,
        "meta_mean_anomaly": 171.2627,
        "meta_ephemeris_type": 0,
        "meta_classification_type": "U",
        "meta_norad_cat_id": 31367,
        "meta_element_set_no": 999,
        "meta_rev_at_epoch": 98534,
        "meta_bstar": 0.00047985737,
        "meta_mean_motion_dot": 1.824e-05,
        "meta_mean_motion_ddot": 0,
        "tle_line1": "1 31367U 99025BRX 25351.46295830  .00001824  00000+0  47986-3 0  9999",
        "tle_line2": "2 31367  98.7463 245.8870 0099187   2.2800 171.2627 14.47510218985347"
      },
      "geometry": {
        "type": "Point",
        "coordinates": [
          -100.10231175097574,
          -56.703947497166276
        ]
      }
    },
    {
      "type": "Feature",
      "properties": {
        "norad_id": 31369,
        "name": "FENGYUN 1C DEB",
        "group": "fengyun-1c-debris",
        "lat": -11.210387902804158,
        "lon": 151.31688528836486,
        "alt_km": 833.7232560789253,
        "timestamp": "2025-12-17T21:39:45.968620+00:00",
        "meta_object_name": "FENGYUN 1C DEB",
        "meta_object_id": "1999-025BRZ",
        "meta_epoch": "2025-12-13T17:46:59.452032",
        "meta_mean_motion": 14.19412375,
        "meta_eccentricity": 0.005436,
        "meta_inclination": 98.6192,
        "meta_ra_of_asc_node": 328.9902,
        "meta_arg_of_pericenter": 296.6832,
        "meta_mean_anomaly": 241.5666,
        "meta_ephemeris_type": 0,
        "meta_classification_type": "U",
        "meta_norad_cat_id": 31369,
        "meta_element_set_no": 999,
        "meta_rev_at_epoch": 64341,
        "meta_bstar": 0.00041020724,
        "meta_mean_motion_dot": 8.32e-06,
        "meta_mean_motion_ddot": 0,
        "tle_line1": "1 31369U 99025BRZ 25347.74096588  .00000832  00000+0  41021-3 0  9998",
        "tle_line2": "2 31369  98.6192 328.9902 0054360 296.6832 241.5666 14.19412375643411"
      },
      "geometry": {
        "type": "Point",
        "coordinates": [
          151.31688528836486,
          -11.210387902804158
        ]
      }
    },
    {
      "type": "Feature",
      "properties": {
        "norad_id": 31370,
        "name": "FENGYUN 1C DEB",
        "group": "fengyun-1c-debris",
        "lat": 33.62330680534189,
        "lon": 177.65250111027868,
        "alt_km": 875.806188493164,
        "timestamp": "2025-12-17T21:39:45.968629+00:00",
        "meta_object_name": "FENGYUN 1C DEB",
        "meta_object_id": "1999-025BSA",
        "meta_epoch": "2025-12-14T11:12:21.611520",
        "meta_mean_motion": 14.09709611,
        "meta_eccentricity": 0.00332743,
        "meta_inclination": 98.7542,
        "meta_ra_of_asc_node": 348.4304,
        "meta_arg_of_pericenter": 292.7284,
        "meta_mean_anomaly": 67.0371,
        "meta_ephemeris_type": 0,
        "meta_classification_type": "U",
        "meta_norad_cat_id": 31370,
        "meta_element_set_no": 999,
        "meta_rev_at_epoch": 96318,
        "meta_bstar": 0.00042202718,
        "meta_mean_motion_dot": 7.01e-06,
        "meta_mean_motion_ddot": 0,
        "tle_line1": "1 31370U 99025BSA 25348.46691680  .00000701  00000+0  42203-3 0  9992",
        "tle_line2": "2 31370  98.7542 348.4304 0033274 292.7284  67.0371 14.09709611963189"
      },
      "geometry": {
        "type": "Point",
        "coordinates": [
          177.65250111027868,
          33.62330680534189
        ]
      }
    },
    {
      "type": "Feature",
      "properties": {
        "norad_id": 31371,
        "name": "FENGYUN 1C DEB",
        "group": "fengyun-1c-debris",
        "lat": -46.4681926081471,
        "lon": 34.06282337594076,
        "alt_km": 875.3998205596463,
        "timestamp": "2025-12-17T21:39:45.968638+00:00",
        "meta_object_name": "FENGYUN 1C DEB",
        "meta_object_id": "1999-025BSB",
        "meta_epoch": "2025-12-17T08:12:36.107712",
        "meta_mean_motion": 14.0451849,
        "meta_eccentricity": 0.00779585,
        "meta_inclination": 98.7657,
        "meta_ra_of_asc_node": 24.1749,
        "meta_arg_of_pericenter": 233.7068,
        "meta_mean_anomaly": 125.6882,
        "meta_ephemeris_type": 0,
        "meta_classification_type": "U",
        "meta_norad_cat_id": 31371,
        "meta_element_set_no": 999,
        "meta_rev_at_epoch": 95811,
        "meta_bstar": 0.00054981638,
        "meta_mean_motion_dot": 8.59e-06,
        "meta_mean_motion_ddot": 0,
        "tle_line1": "1 31371U 99025BSB 25351.34208458  .00000859  00000+0  54982-3 0  9992",
        "tle_line2": "2 31371  98.7657  24.1749 0077958 233.7068 125.6882 14.04518490958113"
      },
      "geometry": {
        "type": "Point",
        "coordinates": [
          34.06282337594076,
          -46.4681926081471
        ]
      }
    },
    {
      "type": "Feature",
      "properties": {
        "norad_id": 31372,
        "name": "FENGYUN 1C DEB",
        "group": "fengyun-1c-debris",
        "lat": 74.3758884844625,
        "lon": -160.48758652529662,
        "alt_km": 777.9741630067037,
        "timestamp": "2025-12-17T21:39:45.968647+00:00",
        "meta_object_name": "FENGYUN 1C DEB",
        "meta_object_id": "1999-025BSC",
        "meta_epoch": "2025-12-15T22:03:16.354656",
        "meta_mean_motion": 14.26562101,
        "meta_eccentricity": 0.00338949,
        "meta_inclination": 99.374,
        "meta_ra_of_asc_node": 341.1848,
        "meta_arg_of_pericenter": 66.0499,
        "meta_mean_anomaly": 294.4222,
        "meta_ephemeris_type": 0,
        "meta_classification_type": "U",
        "meta_norad_cat_id": 31372,
        "meta_element_set_no": 999,
        "meta_rev_at_epoch": 95896,
        "meta_bstar": 0.001209619,
        "meta_mean_motion_dot": 2.887e-05,
        "meta_mean_motion_ddot": 0,
        "tle_line1": "1 31372U 99025BSC 25349.91893929  .00002887  00000+0  12096-2 0  9998",
        "tle_line2": "2 31372  99.3740 341.1848 0033894  66.0499 294.4222 14.26562101958960"
      },
      "geometry": {
        "type": "Point",
        "coordinates": [
          -160.48758652529662,
          74.3758884844625
        ]
      }
    },
    {
      "type": "Feature",
      "properties": {
        "norad_id": 31376,
        "name": "FENGYUN 1C DEB",
        "group": "fengyun-1c-debris",
        "lat": -60.81405988302839,
        "lon": -75.36807643366122,
        "alt_km": 670.1679222899775,
        "timestamp": "2025-12-17T21:39:45.968656+00:00",
        "meta_object_name": "FENGYUN 1C DEB",
        "meta_object_id": "1999-025BSG",
        "meta_epoch": "2025-12-17T12:05:20.658912",
        "meta_mean_motion": 14.61804596,
        "meta_eccentricity": 0.0048719,
        "meta_inclination": 98.8337,
        "meta_ra_of_asc_node": 268.0401,
        "meta_arg_of_pericenter": 253.9012,
        "meta_mean_anomaly": 105.682,
        "meta_ephemeris_type": 0,
        "meta_classification_type": "U",
        "meta_norad_cat_id": 31376,
        "meta_element_set_no": 999,
        "meta_rev_at_epoch": 98212,
        "meta_bstar": 0.0014922212,
        "meta_mean_motion_dot": 7.527e-05,
        "meta_mean_motion_ddot": 0,
        "tle_line1": "1 31376U 99025BSG 25351.50371133  .00007527  00000+0  14922-2 0  9994",
        "tle_line2": "2 31376  98.8337 268.0401 0048719 253.9012 105.6820 14.61804596982120"
      },
      "geometry": {
        "type": "Point",
        "coordinates": [
          -75.36807643366122,
          -60.81405988302839
        ]
      }
    },
    {
      "type": "Feature",
      "properties": {
        "norad_id": 31378,
        "name": "FENGYUN 1C DEB",
        "group": "fengyun-1c-debris",
        "lat": -25.586365997668413,
        "lon": 56.307310122194586,
        "alt_km": 853.4821142167675,
        "timestamp": "2025-12-17T21:39:45.968665+00:00",
        "meta_object_name": "FENGYUN 1C DEB",
        "meta_object_id": "1999-025BSJ",
        "meta_epoch": "2025-12-15T23:25:55.260192",
        "meta_mean_motion": 13.80081198,
        "meta_eccentricity": 0.01683642,
        "meta_inclination": 100.7566,
        "meta_ra_of_asc_node": 239.3423,
        "meta_arg_of_pericenter": 189.6652,
        "meta_mean_anomaly": 170.1243,
        "meta_ephemeris_type": 0,
        "meta_classification_type": "U",
        "meta_norad_cat_id": 31378,
        "meta_element_set_no": 999,
        "meta_rev_at_epoch": 94268,
        "meta_bstar": 0.00064817453,
        "meta_mean_motion_dot": 6.94e-06,
        "meta_mean_motion_ddot": 0,
        "tle_line1": "1 31378U 99025BSJ 25349.97633403  .00000694  00000+0  64817-3 0  9992",
        "tle_line2": "2 31378 100.7566 239.3423 0168364 189.6652 170.1243 13.80081198942686"
      },
      "geometry": {
        "type": "Point",
        "coordinates": [
          56.307310122194586,
          -25.586365997668413
        ]
      }
    }
  ]
}